P/2020 T3 (PANSTARRS),e,7.2967,73.9990,357.0341,3.517185,0.1494209,0.59183959,83.1442,07/31.0/2022,2000,g 18.0,3.2
# From MPEC 2021-N06
C/2020 T4 (PANSTARRS),h,07/05.2656/2021,83.8245,50.6143,79.6103,1.000098,2.191859,2000,13.0,3.2
# From MPEC 2021-BE3
C/2020 T5 (Lemmon),e,66.5772,237.8536,90.3170,803.7655,0.0000433,0.99764857,0.0000,10/09.5490/2020,2000,g 16.0,4.0
# From MPEC 2021-N06
P/2020 U2 (PANSTARRS),e,6.4208,342.8974,84.6327,3.778005,0.1342178,0.51088360,78.1408,07/31.0/2022,2000,g 18.0,4.0
# From MPEC 2021-W31
C/2020 U3 (Rankin),e,30.1667,282.6677,124.2938,65.94668,0.0018404,0.96548210,0.9937,07/31.0/2022,2000,g 15.0,4.0
# From MPEC 2022-OB6
C/2020 U4 (PANSTARRS),h,04/08.1522/2022,167.0359,120.0157,69.5546,1.001372,5.353786,2000,7.0,4.0
# From MPEC 2022-OB6
C/2020 U5 (PANSTARRS),e,97.2699,107.3335,75.4217,4502,0.0000033,0.99916567,0.0000,04/27.9137/2022,2000,g  8.0,4.0
# From MPEC 2022-OB6
C/2020 V2 (ZTF),h,05/08.5352/2023,131.6110,212.3700,162.4182,1.001005,2.228031,2000,4.9,4.0
# From MPEC 2021-N06
P/2020 V3 (PANSTARRS),e,23.0321,198.2545,249.3571,8.376727,0.0406530,0.25625613,21.8308,07/31.0/2022,2000,g  8.3,4.0
# From MPEC 2022-K19
P/2020 V4 (Rankin),e,14.2434,203.4880,256.9983,9.357585,0.0344317,0.44981592,13.0214,07/31.0/2022,2000,g  9.0,4.0
# From MPEC 2021-BE3
P/2020 W1 (Rankin),e,10.7900,124.2673,264.9956,7.208621,0.0509244,0.26614803,43.0354,07/31.0/2022,2000,g 10.0,4.0
# From MPEC 2021-BE3
C/2020 W5 (Lemmon),h,11/30.0564/2020,88.5862,75.4892,24.4819,1.000661,3.364463,2000,15.0,4.0
# From MPEC 2022-L66
P/2020 WJ5 (Lemmon),e,22.2945,177.8109,338.2903,6.016780,0.0667818,0.17125243,26.3098,07/31.0/2022,2000,g  8.5,4.0
# From MPEC 2021-P47
P/2020 X1 (ATLAS),e,31.6928,56.0062,323.3453,4.528709,0.1022686,0.36556066,75.7148,07/31.0/2022,2000,g 13.0,4.0
# From MPEC 2021-U31
C/2020 X2 (ATLAS),e,18.1868,105.4431,347.3431,16.42566,0.0148054,0.76698080,9.2110,07/31.0/2022,2000,g 10.6,4.0
# From MPEC 2021-S45
C/2020 X4 (Leonard),e,80.6114,161.8843,140.3027,41.12819,0.0037368,0.87307131,2.3229,07/31.0/2022,2000,g  9.0,4.0
# From MPEC 2022-M88
C/2020 Y2 (ATLAS),e,101.2978,26.5149,266.1043,1068,0.0000283,0.99706583,0.0000,06/17.6931/2022,2000,g  6.5,4.0
# From MPEC 2021-R75
C/2020 Y3 (ATLAS),e,83.1011,191.4407,341.9999,145.9611,0.0005589,0.98631062,0.0000,12/03.3945/2020,2000,g 13.5,4.0
# From MPEC 2022-H04
C/2021 A1 (Leonard),e,132.6880,255.8964,225.0932,24146,0.0000003,0.99997452,0.0000,01/03.2924/2022,2000,g  8.5,4.0
# From MPEC 2022-F14
C/2021 A2 (NEOWISE),e,106.9788,125.2259,338.8101,241.5281,0.0002626,0.99415244,0.0000,01/22.5526/2021,2000,g 13.5,4.0
# From MPEC 2022-ED3
C/2021 A4 (NEOWISE),e,111.5344,307.1123,204.7050,42.70349,0.0035319,0.97314696,0.0000,03/19.9215/2021,2000,g 16.0,4.0
# From MPEC 2021-BE3
P/2021 A5 (PANSTARRS),e,18.1867,328.7679,61.2524,3.047396,0.1852724,0.13987307,115.9453,07/31.0/2022,2000,g 15.0,4.0
# From MPEC 2022-K19
C/2021 A6 (PANSTARRS),e,75.6117,164.0792,351.6717,10153,0.0000010,0.99921915,0.0000,05/03.8117/2021,2000,g  7.0,4.0
# From MPEC 2022-M88
C/2021 A7 (NEOWISE),e,78.1498,154.5165,356.0366,3514,0.0000047,0.99944015,0.0000,07/15.2645/2021,2000,g 10.0,4.0
# From MPEC 2022-K19
C/2021 A9 (PANSTARRS),h,12/01.3638/2023,158.0236,314.8433,211.4524,1.003288,7.760244,2000,6.0,4.0
# From MPEC 2021-N06
C/2021 A10 (NEOWISE),e,151.9062,188.6538,82.3994,91.22447,0.0011312,0.98614987,0.0000,03/15.3313/2021,2000,g 19.0,4.0
# From MPEC 2022-L66
C/2021 B2 (PANSTARRS),e,38.0887,120.5466,334.9642,351.9598,0.0001493,0.99286146,0.0000,05/04.2775/2021,2000,g 14.0,4.0
# From MPEC 2021-N06
C/2021 B3 (NEOWISE),e,119.4812,67.2853,293.5496,34.73462,0.0048146,0.93780482,2.4419,07/31.0/2022,2000,g 13.5,4.0
# From MPEC 2022-ED3
C/2021 C1 (Rankin),e,143.0454,186.8992,336.2840,56115,0.0000001,0.99993798,0.0000,12/07.0680/2020,2000,g 11.5,4.0
# From MPEC 2021-U31
P/2021 C2 (PANSTARRS),e,21.9305,66.4712,78.7567,9.534532,0.0334777,0.48722596,17.4807,07/31.0/2022,2000,g 12.0,4.0
# From MPEC 2021-N06
C/2021 C3 (Catalina),e,122.1642,181.9281,357.1145,62.68572,0.0019859,0.96370104,1.0598,07/31.0/2022,2000,g 14.0,4.0
# From MPEC 2022-M88
C/2021 C4 (ATLAS),e,132.8528,194.2771,320.2267,84724,0.0000000,0.99994684,0.0000,01/17.1152/2021,2000,g  9.0,4.0
# From MPEC 2022-O01
C/2021 C5 (PANSTARRS),e,50.7829,323.6881,270.9200,3248,0.0000053,0.99900183,0.0000,02/11.0726/2023,2000,g  9.0,4.0
# From MPEC 2022-F14
C/2021 C6 (Lemmon),h,11/13.2688/2021,164.6257,332.1551,203.5521,1.001334,3.271132,2000,12.0,4.0
# From MPEC 2022-F14
C/2021 D1 (SWAN),e,31.4496,311.2629,72.2452,98.88370,0.0010023,0.99087960,0.0000,02/27.6765/2021,2000,g 13.0,4.0
# From MPEC 2022-K19
C/2021 D2 (ZTF),h,02/03.9836/2022,83.8274,305.6805,125.0289,1.001645,2.946289,2000,9.0,4.0
# From MPEC 2021-N06
A/2021 E2,e,167.4883,190.8227,342.4359,233.1853,0.0002768,0.99019333,0.0000,12/10.4605/2020,2000,g 15.0,2.0
# From MPEC 2022-OB6
C/2021 E3 (ZTF),h,06/11.9119/2022,112.5549,104.4691,228.8509,1.000899,1.777385,2000,8.5,4.0
# From MPEC 2022-M88
A/2021 E4,e,116.3616,171.1741,48.2712,654.9670,0.0000588,0.99286075,0.0000,04/25.2750/2022,2000,g 13.5,2.0
# From MPEC 2022-OB6
C/2021 F1 (Lemmon-PANSTARRS),e,107.3260,203.4525,146.8212,234.5875,0.0002743,0.99575666,0.0000,04/06.8718/2022,2000,g 13.5,4.0
# From MPEC 2021-J72
C/2021 G1 (Leonard),e,131.5575,270.6997,107.4675,74.84803,0.0015221,0.95426288,0.5691,07/31.0/2022,2000,g 14.0,4.0
# From MPEC 2022-L66
C/2021 G2 (ATLAS),e,48.4725,221.1075,343.3588,4083,0.0000038,0.99878040,0.0000,09/09.9605/2024,2000,g  5.5,4.0
# From MPEC 2022-M21
C/2021 G3 (PANSTARRS),h,10/18.4167/2021,102.8809,147.4164,10.6262,1.000808,5.180836,2000,10.5,4.0
# From MPEC 2021-Y10
P/2021 HS (PANSTARRS),e,12.1688,262.3900,46.0950,4.194500,0.1147318,0.81004869,41.1475,07/31.0/2022,2000,g 22.0,4.0
# From MPEC 2022-C56
C/2021 J1 (Maury-Attard),e,92.7207,88.3335,147.3338,26.42857,0.0072543,0.93412414,3.8199,07/31.0/2022,2000,g 15.5,4.0
# From MPEC 2022-M88
C/2021 J2 (PANSTARRS),e,156.2116,23.3318,172.0518,117.9837,0.0007691,0.96011058,0.2396,07/31.0/2022,2000,g 12.0,4.0
# From MPEC 2021-S45
P/2021 J3 (ATLAS),e,14.5407,111.1836,126.0467,8.941102,0.0368653,0.44983035,41.3588,07/31.0/2022,2000,g  7.0,4.0
# From MPEC 2022-O08
C/2021 K1 (ATLAS),e,16.2758,140.9021,184.2802,12.69023,0.0218022,0.80317158,9.8673,07/31.0/2022,2000,g 11.0,4.0
# From MPEC 2022-O01
C/2021 K2 (MASTER),h,09/09.3948/2021,100.8471,282.2460,343.3504,1.001087,5.467537,2000,8.0,4.0
# From MPEC 2022-L66
C/2021 K3 (Catalina),h,02/02.9677/2022,134.7750,114.4524,182.0286,1.002906,5.229678,2000,10.0,4.0
# From MPEC 2021-W31
P/2021 L2 (Leonard),e,21.0699,266.6569,51.5151,4.049885,0.1209317,0.52137083,44.9359,07/31.0/2022,2000,g 17.0,4.0
# From MPEC 2022-O01
C/2021 L3 (Borisov),h,02/13.7185/2022,78.5800,344.9695,91.5966,1.002167,8.457807,2000,6.0,4.0
# From MPEC 2022-OB6
P/2021 L4 (PANSTARRS),e,16.9605,243.2204,234.5329,3.165318,0.1750161,0.11848387,185.8227,07/31.0/2022,2000,g 13.5,4.0
# From MPEC 2021-P47
P/2021 N1 (ZTF),e,11.5037,301.1682,21.2079,2.977597,0.1918249,0.67666680,80.4648,07/31.0/2022,2000,g 19.0,4.0
# From MPEC 2022-GA9
P/2021 N2 (Fuls),e,13.0622,221.7409,177.3781,6.934076,0.0539785,0.45243794,14.0077,07/31.0/2022,2000,g  9.5,4.0
# From MPEC 2022-OB6
C/2021 N3 (PANSTARRS),e,26.7437,337.4941,304.7391,157.8483,0.0004970,0.96380221,0.3530,07/31.0/2022,2000,g  8.5,4.0
# From MPEC 2022-A21
C/2021 O1 (Nishimura),e,27.5802,41.6104,74.4355,2445,0.0000082,0.99967828,0.0000,08/13.9372/2021,2000,g 10.5,4.0
# From MPEC 2022-L66
C/2021 O3 (PANSTARRS),h,04/21.0463/2022,56.7939,189.0187,299.9863,1.000098,0.287330,2000,10.5,4.0
# From MPEC 2022-CN4
C/2021 P1 (PANSTARRS),e,51.6365,359.6762,40.4335,2923,0.0000062,0.99850358,0.0000,06/02.2065/2022,2000,g 11.0,4.0
# From MPEC 2022-OB6
C/2021 P2 (PANSTARRS),e,150.0607,32.0689,76.6425,3164,0.0000055,0.99839775,0.0000,01/22.3747/2023,2000,g  9.0,4.0
# From MPEC 2021-W31
P/2021 P3 (PANSTARRS),e,27.1617,358.2397,334.1169,4.414027,0.1062800,0.33944977,45.3350,07/31.0/2022,2000,g 14.0,4.0
# From MPEC 2022-OB6
C/2021 P4 (ATLAS),e,56.3108,348.0945,175.8196,323.1428,0.0001697,0.99665642,0.0000,07/30.3680/2022,2000,g  9.5,4.0
# From MPEC 2022-GA9
C/2021 Q3 (ATLAS),e,77.7738,307.9058,114.0956,75.21099,0.0015111,0.93080011,0.2808,07/31.0/2022,2000,g  8.0,4.0
# From MPEC 2022-OB6
C/2021 Q4 (Fuls),h,06/09.7248/2023,71.4725,183.3344,146.9500,1.003292,7.565248,2000,6.0,4.0
# From MPEC 2022-C56
P/2021 Q5 (ATLAS),e,10.7351,239.7629,180.9054,3.286194,0.1654490,0.62437348,55.3495,07/31.0/2022,2000,g 15.0,4.0
# From MPEC 2022-N37
C/2021 Q6 (PANSTARRS),e,161.8474,133.5348,140.8692,9401,0.0000011,0.99907333,0.0000,03/22.4880/2024,2000,g  6.0,4.0
# From MPEC 2022-OB6
C/2021 QM45 (PANSTARRS),e,22.8224,354.5886,72.8030,351.8080,0.0001494,0.99211708,0.0000,08/13.4299/2022,2000,g 11.0,4.0
# From MPEC 2022-OB6
P/2021 R1 (PANSTARRS),e,5.5200,143.3892,220.3684,8.378899,0.0406372,0.41689093,9.1523,07/31.0/2022,2000,g 11.0,4.0
# From MPEC 2022-O08
C/2021 R2 (PANSTARRS),e,134.4800,16.2930,32.3853,2515,0.0000078,0.99709206,0.0000,12/26.1232/2021,2000,g  7.5,4.0
# From MPEC 2021-W31
P/2021 R3 (PANSTARRS),e,19.9266,304.2151,2.8531,3.774628,0.1343980,0.33133228,57.8673,07/31.0/2022,2000,g 16.0,4.0
# From MPEC 2021-W31
P/2021 R4 (Wierzchos),e,21.0396,321.2570,56.6465,5.618650,0.0740042,0.58597388,21.4629,07/31.0/2022,2000,g 16.0,4.0
# From MPEC 2022-CN4
P/2021 R5 (Rankin),e,7.8547,219.9596,167.3872,4.793656,0.0939082,0.30683209,18.7601,07/31.0/2022,2000,g 12.0,4.0
# From MPEC 2021-W31
P/2021 R6 (Groeller),e,34.9270,176.1140,220.7473,6.274885,0.0627040,0.59324080,17.0588,07/31.0/2022,2000,g 14.5,4.0
# From MPEC 2022-L66
C/2021 R7 (PANSTARRS),e,158.8483,170.1431,140.2559,1089,0.0000274,0.99481497,0.0000,04/16.6555/2021,2000,g 10.5,4.0
# From MPEC 2021-Y10
P/2021 R8 (Sheppard),e,2.2034,167.0280,190.7751,3.017013,0.1880781,0.29361583,55.7748,07/31.0/2022,2000,g 18.5,4.0
# From MPEC 2022-OB6
